[{"OBJECT_NAME":"ONEWEB-0321","OBJECT_ID":"2021-083F","EPOCH":"2026-02-17T03:02:01.972608","MEAN_MOTION":13.20771191,"ECCENTRICITY":0.0001588,"INCLINATION":87.9203,"RA_OF_ASC_NODE":298.4013,"ARG_OF_PERICENTER":90.3163,"MEAN_ANOMALY":269.8152,"EPHEMERIS_TYPE":0,"CLASSIFICATION_TYPE":"U","NORAD_CAT_ID":49191,"ELEMENT_SET_NO":999,"REV_AT_EPOCH":22098,"BSTAR":0.00035786,"MEAN_MOTION_DOT":1.58e-6,"MEAN_MOTION_DDOT":0},{"OBJECT_NAME":"ONEWEB-0322","OBJECT_ID":"2021-083G","EPOCH":"2026-02-16T20:54:11.147040","MEAN_MOTION":13.13469547,"ECCENTRICITY":0.000145,"INCLINATION":87.9033,"RA_OF_ASC_NODE":344.1646,"ARG_OF_PERICENTER":90.8355,"MEAN_ANOMALY":269.294,"EPHEMERIS_TYPE":0,"CLASSIFICATION_TYPE":"U","NORAD_CAT_ID":49192,"ELEMENT_SET_NO":999,"REV_AT_EPOCH":21512,"BSTAR":-0.00053298,"MEAN_MOTION_DOT":-1.82e-6,"MEAN_MOTION_DDOT":0},{"OBJECT_NAME":"ONEWEB-0324","OBJECT_ID":"2021-083H","EPOCH":"2026-02-16T20:55:00.338880","MEAN_MOTION":13.18685092,"ECCENTRICITY":0.0002035,"INCLINATION":87.9236,"RA_OF_ASC_NODE":359.3338,"ARG_OF_PERICENTER":83.7475,"MEAN_ANOMALY":276.3889,"EPHEMERIS_TYPE":0,"CLASSIFICATION_TYPE":"U","NORAD_CAT_ID":49193,"ELEMENT_SET_NO":999,"REV_AT_EPOCH":21414,"BSTAR":5.0685e-5,"MEAN_MOTION_DOT":3.3e-7,"MEAN_MOTION_DDOT":0},{"OBJECT_NAME":"ONEWEB-0325","OBJECT_ID":"2021-083J","EPOCH":"2026-02-16T20:59:45.348288","MEAN_MOTION":13.18684494,"ECCENTRICITY":0.0001821,"INCLINATION":87.923,"RA_OF_ASC_NODE":359.352,"ARG_OF_PERICENTER":81.5253,"MEAN_ANOMALY":278.6086,"EPHEMERIS_TYPE":0,"CLASSIFICATION_TYPE":"U","NORAD_CAT_ID":49194,"ELEMENT_SET_NO":999,"REV_AT_EPOCH":21415,"BSTAR":-2.1413e-5,"MEAN_MOTION_DOT":4.0e-8,"MEAN_MOTION_DDOT":0},{"OBJECT_NAME":"ONEWEB-0326","OBJECT_ID":"2021-083K","EPOCH":"2026-02-16T21:21:20.460960","MEAN_MOTION":13.18684745,"ECCENTRICITY":0.0001908,"INCLINATION":87.9236,"RA_OF_ASC_NODE":359.3363,"ARG_OF_PERICENTER":71.3091,"MEAN_ANOMALY":288.8248,"EPHEMERIS_TYPE":0,"CLASSIFICATION_TYPE":"U","NORAD_CAT_ID":49195,"ELEMENT_SET_NO":999,"REV_AT_EPOCH":21414,"BSTAR":-4.3899e-5,"MEAN_MOTION_DOT":-4.0e-8,"MEAN_MOTION_DDOT":0},{"OBJECT_NAME":"ONEWEB-0327","OBJECT_ID":"2021-083L","EPOCH":"2026-02-16T21:20:56.649120","MEAN_MOTION":13.18684721,"ECCENTRICITY":0.0001799,"INCLINATION":87.9227,"RA_OF_ASC_NODE":359.351,"ARG_OF_PERICENTER":68.8371,"MEAN_ANOMALY":291.2954,"EPHEMERIS_TYPE":0,"CLASSIFICATION_TYPE":"U","NORAD_CAT_ID":49196,"ELEMENT_SET_NO":999,"REV_AT_EPOCH":21416,"BSTAR":-0.00014113,"MEAN_MOTION_DOT":-4.3e-7,"MEAN_MOTION_DDOT":0},{"OBJECT_NAME":"ONEWEB-0328","OBJECT_ID":"2021-083M","EPOCH":"2026-02-16T20:39:33.710976","MEAN_MOTION":13.13469941,"ECCENTRICITY":0.0001937,"INCLINATION":87.9046,"RA_OF_ASC_NODE":344.1238,"ARG_OF_PERICENTER":80.189,"MEAN_ANOMALY":279.9458,"EPHEMERIS_TYPE":0,"CLASSIFICATION_TYPE":"U","NORAD_CAT_ID":49197,"ELEMENT_SET_NO":999,"REV_AT_EPOCH":21510,"BSTAR":-0.0012912,"MEAN_MOTION_DOT":-4.59e-6,"MEAN_MOTION_DDOT":0},{"OBJECT_NAME":"ONEWEB-0331","OBJECT_ID":"2021-083N","EPOCH":"2026-02-16T21:11:38.081760","MEAN_MOTION":13.18683783,"ECCENTRICITY":0.0002086,"INCLINATION":87.9239,"RA_OF_ASC_NODE":359.3317,"ARG_OF_PERICENTER":73.4599,"MEAN_ANOMALY":286.6762,"EPHEMERIS_TYPE":0,"CLASSIFICATION_TYPE":"U","NORAD_CAT_ID":49198,"ELEMENT_SET_NO":999,"REV_AT_EPOCH":21415,"BSTAR":-0.00018808,"MEAN_MOTION_DOT":-6.1e-7,"MEAN_MOTION_DDOT":0},{"OBJECT_NAME":"ONEWEB-0333","OBJECT_ID":"2021-083P","EPOCH":"2026-02-16T20:32:14.709984","MEAN_MOTION":13.13468233,"ECCENTRICITY":0.0001779,"INCLINATION":87.9028,"RA_OF_ASC_NODE":344.1666,"ARG_OF_PERICENTER":77.2962,"MEAN_ANOMALY":282.8366,"EPHEMERIS_TYPE":0,"CLASSIFICATION_TYPE":"U","NORAD_CAT_ID":49199,"ELEMENT_SET_NO":999,"REV_AT_EPOCH":21511,"BSTAR":-0.00077618,"MEAN_MOTION_DOT":-2.71e-6,"MEAN_MOTION_DDOT":0},{"OBJECT_NAME":"ONEWEB-0334","OBJECT_ID":"2021-083Q","EPOCH":"2026-02-17T03:27:01.861920","MEAN_MOTION":13.20770402,"ECCENTRICITY":0.0001132,"INCLINATION":87.9193,"RA_OF_ASC_NODE":298.4186,"ARG_OF_PERICENTER":117.0427,"MEAN_ANOMALY":243.0822,"EPHEMERIS_TYPE":0,"CLASSIFICATION_TYPE":"U","NORAD_CAT_ID":49200,"ELEMENT_SET_NO":999,"REV_AT_EPOCH":22094,"BSTAR":0.0002154,"MEAN_MOTION_DOT":1.01e-6,"MEAN_MOTION_DDOT":0},{"OBJECT_NAME":"ONEWEB-0335","OBJECT_ID":"2021-083R","EPOCH":"2026-02-16T20:24:56.420928","MEAN_MOTION":13.1347144,"ECCENTRICITY":0.0001909,"INCLINATION":87.9037,"RA_OF_ASC_NODE":344.16,"ARG_OF_PERICENTER":74.2732,"MEAN_ANOMALY":285.8608,"EPHEMERIS_TYPE":0,"CLASSIFICATION_TYPE":"U","NORAD_CAT_ID":49201,"ELEMENT_SET_NO":999,"REV_AT_EPOCH":21512,"BSTAR":-0.00083526,"MEAN_MOTION_DOT":-2.92e-6,"MEAN_MOTION_DDOT":0},{"OBJECT_NAME":"ONEWEB-0336","OBJECT_ID":"2021-083S","EPOCH":"2026-02-16T19:43:30.361152","MEAN_MOTION":13.13471941,"ECCENTRICITY":0.0002152,"INCLINATION":87.9039,"RA_OF_ASC_NODE":344.1619,"ARG_OF_PERICENTER":71.0081,"MEAN_ANOMALY":289.1282,"EPHEMERIS_TYPE":0,"CLASSIFICATION_TYPE":"U","NORAD_CAT_ID":49202,"ELEMENT_SET_NO":999,"REV_AT_EPOCH":21511,"BSTAR":0.00039982,"MEAN_MOTION_DOT":1.59e-6,"MEAN_MOTION_DDOT":0},{"OBJECT_NAME":"ONEWEB-0337","OBJECT_ID":"2021-083T","EPOCH":"2026-02-16T21:47:38.390208","MEAN_MOTION":13.13468415,"ECCENTRICITY":0.0002005,"INCLINATION":87.903,"RA_OF_ASC_NODE":344.1557,"ARG_OF_PERICENTER":78.123,"MEAN_ANOMALY":282.0124,"EPHEMERIS_TYPE":0,"CLASSIFICATION_TYPE":"U","NORAD_CAT_ID":49203,"ELEMENT_SET_NO":999,"REV_AT_EPOCH":21512,"BSTAR":-0.00064583,"MEAN_MOTION_DOT":-2.23e-6,"MEAN_MOTION_DDOT":0},{"OBJECT_NAME":"ONEWEB-0338","OBJECT_ID":"2021-083U","EPOCH":"2026-02-17T02:50:40.871904","MEAN_MOTION":13.20773469,"ECCENTRICITY":0.0001419,"INCLINATION":87.9195,"RA_OF_ASC_NODE":298.4277,"ARG_OF_PERICENTER":89.9912,"MEAN_ANOMALY":270.1384,"EPHEMERIS_TYPE":0,"CLASSIFICATION_TYPE":"U","NORAD_CAT_ID":49204,"ELEMENT_SET_NO":999,"REV_AT_EPOCH":22096,"BSTAR":0.0004412,"MEAN_MOTION_DOT":1.92e-6,"MEAN_MOTION_DDOT":0},{"OBJECT_NAME":"ONEWEB-0339","OBJECT_ID":"2021-083V","EPOCH":"2026-02-16T20:10:19.913664","MEAN_MOTION":13.13471065,"ECCENTRICITY":0.0001745,"INCLINATION":87.9041,"RA_OF_ASC_NODE":344.1552,"ARG_OF_PERICENTER":88.6225,"MEAN_ANOMALY":271.5104,"EPHEMERIS_TYPE":0,"CLASSIFICATION_TYPE":"U","NORAD_CAT_ID":49205,"ELEMENT_SET_NO":999,"REV_AT_EPOCH":21509,"BSTAR":-0.00067231,"MEAN_MOTION_DOT":-2.33e-6,"MEAN_MOTION_DDOT":0},{"OBJECT_NAME":"ONEWEB-0340","OBJECT_ID":"2021-083W","EPOCH":"2026-02-16T20:52:37.706304","MEAN_MOTION":13.18684775,"ECCENTRICITY":0.0001907,"INCLINATION":87.9239,"RA_OF_ASC_NODE":359.3388,"ARG_OF_PERICENTER":79.0384,"MEAN_ANOMALY":281.0963,"EPHEMERIS_TYPE":0,"CLASSIFICATION_TYPE":"U","NORAD_CAT_ID":49206,"ELEMENT_SET_NO":999,"REV_AT_EPOCH":21411,"BSTAR":-4.4143e-5,"MEAN_MOTION_DOT":-5.0e-8,"MEAN_MOTION_DDOT":0},{"OBJECT_NAME":"ONEWEB-0341","OBJECT_ID":"2021-083X","EPOCH":"2026-02-16T21:02:08.295360","MEAN_MOTION":13.18685247,"ECCENTRICITY":0.0002367,"INCLINATION":87.9236,"RA_OF_ASC_NODE":359.3484,"ARG_OF_PERICENTER":86.1355,"MEAN_ANOMALY":274.0048,"EPHEMERIS_TYPE":0,"CLASSIFICATION_TYPE":"U","NORAD_CAT_ID":49207,"ELEMENT_SET_NO":999,"REV_AT_EPOCH":21413,"BSTAR":9.2382e-5,"MEAN_MOTION_DOT":4.9e-7,"MEAN_MOTION_DDOT":0}]
