ONEWEB-0321             
1 49191U 21083F   26048.12641172  .00000158  00000+0  35786-3 0  9997
2 49191  87.9203 298.4013 0001588  90.3163 269.8152 13.20771191220982
ONEWEB-0322             
1 49192U 21083G   26047.87096235 -.00000182  00000+0 -53298-3 0  9990
2 49192  87.9033 344.1646 0001450  90.8355 269.2940 13.13469547215121
ONEWEB-0324             
1 49193U 21083H   26047.87153170  .00000033  00000+0  50685-4 0  9994
2 49193  87.9236 359.3338 0002035  83.7475 276.3889 13.18685092214149
ONEWEB-0325             
1 49194U 21083J   26047.87483042  .00000004  00000+0 -21413-4 0  9995
2 49194  87.9230 359.3520 0001821  81.5253 278.6086 13.18684494214159
ONEWEB-0326             
1 49195U 21083K   26047.88982015 -.00000004  00000+0 -43899-4 0  9994
2 49195  87.9236 359.3363 0001908  71.3091 288.8248 13.18684745214145
ONEWEB-0327             
1 49196U 21083L   26047.88954455 -.00000043  00000+0 -14113-3 0  9991
2 49196  87.9227 359.3510 0001799  68.8371 291.2954 13.18684721214168
ONEWEB-0328             
1 49197U 21083M   26047.86080684 -.00000459  00000+0 -12912-2 0  9999
2 49197  87.9046 344.1238 0001937  80.1890 279.9458 13.13469941215101
ONEWEB-0331             
1 49198U 21083N   26047.88307965 -.00000061  00000+0 -18808-3 0  9996
2 49198  87.9239 359.3317 0002086  73.4599 286.6762 13.18683783214153
ONEWEB-0333             
1 49199U 21083P   26047.85572581 -.00000271  00000+0 -77618-3 0  9999
2 49199  87.9028 344.1666 0001779  77.2962 282.8366 13.13468233215114
ONEWEB-0334             
1 49200U 21083Q   26048.14377155  .00000101  00000+0  21540-3 0  9998
2 49200  87.9193 298.4186 0001132 117.0427 243.0822 13.20770402220945
ONEWEB-0335             
1 49201U 21083R   26047.85065302 -.00000292  00000+0 -83526-3 0  9999
2 49201  87.9037 344.1600 0001909  74.2732 285.8608 13.13471440215120
ONEWEB-0336             
1 49202U 21083S   26047.82187918  .00000159  00000+0  39982-3 0  9992
2 49202  87.9039 344.1619 0002152  71.0081 289.1282 13.13471941215116
ONEWEB-0337             
1 49203U 21083T   26047.90808322 -.00000223  00000+0 -64583-3 0  9990
2 49203  87.9030 344.1557 0002005  78.1230 282.0124 13.13468415215120
ONEWEB-0338             
1 49204U 21083U   26048.11852861  .00000192  00000+0  44120-3 0  9990
2 49204  87.9195 298.4277 0001419  89.9912 270.1384 13.20773469220968
ONEWEB-0339             
1 49205U 21083V   26047.84050826 -.00000233  00000+0 -67231-3 0  9997
2 49205  87.9041 344.1552 0001745  88.6225 271.5104 13.13471065215091
ONEWEB-0340             
1 49206U 21083W   26047.86988086 -.00000005  00000+0 -44143-4 0  9993
2 49206  87.9239 359.3388 0001907  79.0384 281.0963 13.18684775214116
ONEWEB-0341             
1 49207U 21083X   26047.87648490  .00000049  00000+0  92382-4 0  9991
2 49207  87.9236 359.3484 0002367  86.1355 274.0048 13.18685247214132
